[{"OBJECT_NAME":"ONEWEB-0052","OBJECT_ID":"2020-008AB","EPOCH":"2026-03-09T21:12:21.096000","MEAN_MOTION":13.09871527,"ECCENTRICITY":0.00017047,"INCLINATION":87.8776,"RA_OF_ASC_NODE":56.0211,"ARG_OF_PERICENTER":70.4367,"MEAN_ANOMALY":289.6944,"EPHEMERIS_TYPE":0,"CLASSIFICATION_TYPE":"U","NORAD_CAT_ID":45156,"ELEMENT_SET_NO":999,"REV_AT_EPOCH":29493,"BSTAR":0.0012988391,"MEAN_MOTION_DOT":4.63e-6,"MEAN_MOTION_DDOT":0},{"OBJECT_NAME":"FREGAT DEB","OBJECT_ID":"2011-037DH","EPOCH":"2026-03-09T04:33:23.081472","MEAN_MOTION":11.46566972,"ECCENTRICITY":0.18116391,"INCLINATION":51.4603,"RA_OF_ASC_NODE":35.1775,"ARG_OF_PERICENTER":145.9194,"MEAN_ANOMALY":227.2544,"EPHEMERIS_TYPE":0,"CLASSIFICATION_TYPE":"U","NORAD_CAT_ID":45888,"ELEMENT_SET_NO":999,"REV_AT_EPOCH":23408,"BSTAR":0.0006649834,"MEAN_MOTION_DOT":3.203e-5,"MEAN_MOTION_DDOT":0}]
